GALAXY 25 (G-25)        
1 24812U 97026A   23007.09395247 -.00000119  00000+0  00000+0 0  9992
2 24812   4.1978  81.6191 0002416 289.6821  60.0011  0.99033749 93760
INTELSAT 5 (IS-5)       
1 24916U 97046A   23006.85392887 -.00000057  00000+0  00000+0 0  9990
2 24916   7.6615  59.6223 0005182 205.6955 314.4141  1.00270703 93004
GALAXY 11 (G-11)        
1 26038U 99071A   23007.08915838 -.00000153  00000+0  00000+0 0  9997
2 26038   3.5406  85.1744 0001657 235.1505  85.0503  1.00271568 84472
INTELSAT 9 (IS-9)       
1 26451U 00043A   23007.02549250 -.00000281  00000+0  00000+0 0  9994
2 26451   7.6471  59.8047 0003709 215.2036 150.4985  1.00271531 31541
INTELSAT 1R (IS-1R)     
1 26608U 00072A   23007.26907145 -.00000131  00000+0  00000+0 0  9991
2 26608   4.9128  78.2875 0000478  26.4799 255.7434  1.00271954 28718
INTELSAT 10 (IS-10)     
1 26766U 01019A   23006.85619515  .00000040  00000+0  00000+0 0  9991
2 26766   6.0603  71.6149 0004014 205.6606 314.9078  1.00271207 33015
INTELSAT 901 (IS-901)   
1 26824U 01024A   23007.38909312 -.00000189  00000+0  00000+0 0  9993
2 26824   0.0156 338.0015 0001115 328.0857 273.1871  1.00273921 78983
INTELSAT 902 (IS-902)   
1 26900U 01039A   23007.06715932 -.00000273  00000+0  00000+0 0  9996
2 26900   2.9182  86.7566 0002946 202.7331 150.9526  1.00270620 78087
INTELSAT 904 (IS-904)   
1 27380U 02007A   23007.38874448 -.00000205  00000+0  00000+0 0  9993
2 27380   3.7478  83.7690 0003252 207.1963 286.1605  1.00271098 76485
DIRECTV 5 (TEMPO 1)     
1 27426U 02023A   23007.18660419 -.00000045  00000+0  00000+0 0  9993
2 27426   1.6457  90.8213 0003452 195.6597 137.0467  1.00271555 75517
INTELSAT 905 (IS-905)   
1 27438U 02027A   23007.38970328 -.00000176  00000+0  00000+0 0  9990
2 27438   3.5703  84.4848 0003017 201.1108 296.8717  1.00271200 75368
GALAXY 3C (G-3C)        
1 27445U 02030A   23007.39702302 -.00000140  00000+0  00000+0 0  9999
2 27445   0.4963  92.2430 0001371 220.3983 202.1253  1.00272124 75348
INTELSAT 906 (IS-906)   
1 27513U 02041A   23007.12045062  .00000024  00000+0  00000+0 0  9991
2 27513   2.5882  88.1588 0004770 183.1158 302.6338  1.00270714 74422
GALAXY 12 (G-12)        
1 27715U 03013B   23007.25326859  .00000067  00000+0  00000+0 0  9992
2 27715   3.7806  83.4352 0002208 209.1405 136.1498  1.00271118 39483
GALAXY 23 (G-23)        
1 27854U 03034A   23007.19216135  .00000025  00000+0  00000+0 0  9991
2 27854   0.0301  83.5063 0003160 205.8416 125.3193  1.00275458 75944
GALAXY 13 (HORIZONS-1)  
1 27954U 03044A   23007.19771575  .00000061  00000+0  00000+0 0  9997
2 27954   0.0129  94.8462 0000837 114.6184 201.1963  1.00270633 33962
INTELSAT 10-02          
1 28358U 04022A   23007.10746302  .00000002  00000+0  00000+0 0  9999
2 28358   0.0208  40.2217 0001639 280.7926 183.0920  1.00273611 68027
XM-3 (RHYTHM)           
1 28626U 05008A   23007.17549440 -.00000193  00000+0  00000+0 0  9995
2 28626   0.0427 191.5854 0000827  32.6538 220.2895  1.00270501 65461
DIRECTV 8               
1 28659U 05019A   23007.45535676  .00000014  00000+0  00000+0 0  9991
2 28659   0.0180  43.5687 0003259 246.4664 221.5897  1.00271773 64580
GALAXY 28 (G-28)        
1 28702U 05022A   23007.35188337 -.00000173  00000+0  00000+0 0  9998
2 28702   0.0547  78.7911 0002868 215.7201 209.8025  1.00269882 64228
GALAXY 14 (G-14)        
1 28790U 05030A   23007.08521418  .00000166  00000+0  00000+0 0  9996
2 28790   1.7780  90.0267 0002283 189.0354 250.8778  1.00271434 63705
GALAXY 15 (G-15)        
1 28884U 05041A   23007.32340840  .00000014  00000+0  00000+0 0  9999
2 28884   0.3322  92.7224 0004524 198.9923 171.1592  1.00315795 63000
SPACEWAY 2              
1 28903U 05046B   23007.42932896  .00000114  00000+0  00000+0 0  9996
2 28903   2.3714  86.0690 0001234 177.0054 219.3041  1.00272299 62891
GALAXY 16 (G-16)        
1 29236U 06023A   23007.08793807 -.00000114  00000+0  00000+0 0  9992
2 29236   0.0175  40.2896 0003212 261.3731  97.3853  1.00270147 60369
DIRECTV 9S              
1 29494U 06043A   23007.24722046 -.00000100  00000+0  00000+0 0  9990
2 29494   0.0202  33.3257 0003351 255.9465 165.0752  1.00270052 38784
XM-4 (BLUES)            
1 29520U 06049A   23007.17549440 -.00000193  00000+0  00000+0 0  9995
2 29520   0.0518 264.9335 0002495  66.6676 112.9428  1.00268116 59391
GALAXY 17 (G-17)        
1 31307U 07016B   23007.37645419 -.00000162  00000+0  00000+0 0  9997
2 31307   0.0154  15.9396 0002698 275.6458 219.6091  1.00272310 57478
DIRECTV 10              
1 31862U 07032A   23007.38794719 -.00000090  00000+0  00000+0 0  9990
2 31862   0.0128  86.0275 0000455 270.3692 147.1412  1.00271356 56808
SPACEWAY 3              
1 32018U 07036A   23007.37566970 -.00000140  00000+0  00000+0 0  9999
2 32018   0.7481  91.2441 0000040 220.0684 195.6435  1.00271626 56529
INTELSAT 11 (IS-11)     
1 32253U 07044B   23007.38604235 -.00000256  00000+0  00000+0 0  9995
2 32253   0.3072  93.9017 0003853 210.4380 258.3104  1.00271469 55929
HORIZONS-2              
1 32388U 07063B   23007.37985362 -.00000241  00000+0  00000+0 0  9991
2 32388   0.0247  36.1532 0002582 268.6644 224.8195  1.00270241 55279
DIRECTV 11              
1 32729U 08013A   23007.40223021 -.00000113  00000+0  00000+0 0  9995
2 32729   0.0203 104.4323 0001004 183.9897 223.8964  1.00272085 54331
GALAXY 18 (G-18)        
1 32951U 08024A   23007.45008896  .00000037  00000+0  00000+0 0  9994
2 32951   0.0131  66.7109 0003308 224.0764 214.9808  1.00272723 53481
INTELSAT 25 (IS-25)     
1 33153U 08034A   23007.38830863 -.00000211  00000+0  00000+0 0  9994
2 33153   0.0175  20.8648 0003165 266.6827 287.4256  1.00271416 53037
GALAXY 19 (G-19)        
1 33376U 08045A   23007.28015574 -.00000126  00000+0  00000+0 0  9991
2 33376   0.0188  74.5064 0003101 218.3911 177.5224  1.00271292 52309
FM-5                    
1 35493U 09034A   23006.94709542 -.00000188  00000+0  00000+0 0  9997
2 35493   0.0182  27.9342 0000299 216.4012 116.7218  1.00272302 34033
INTELSAT 14 (IS-14)     
1 36097U 09064A   23007.38560652 -.00000261  00000+0  00000+0 0  9999
2 36097   0.0037  56.0640 0002762 233.6239 270.8102  1.00272252 48095
INTELSAT 15 (IS-15)     
1 36106U 09067A   23007.24632661 -.00000173  00000+0  00000+0 0  9990
2 36106   0.0153  41.7177 0002599 249.4564 349.1953  1.00271931 28629
DIRECTV 12              
1 36131U 09075A   23007.40257741 -.00000091  00000+0  00000+0 0  9996
2 36131   0.0129 177.8777 0000305 129.1242 201.9086  1.00272909 47783
INTELSAT 16 (IS-16)     
1 36397U 10006A   23007.09247066 -.00000232  00000+0  00000+0 0  9997
2 36397   0.0130  41.6439 0002465 245.7917 136.0411  1.00272035 47044
XM-5                    
1 37185U 10053A   23006.94125536 -.00000010  00000+0  00000+0 0  9999
2 37185   0.0280  43.6839 0000717 120.5144 165.6757  1.00271400 44876
INTELSAT 17 (IS-17)     
1 37238U 10065B   23007.12549271  .00000011  00000+0  00000+0 0  9998
2 37238   0.0239 255.1431 0002674  48.3284 274.1240  1.00271229 40635
INTELSAT NEW DAWN       
1 37392U 11016A   23007.13104983  .00000168  00000+0  00000+0 0  9997
2 37392   0.0167  53.7042 0001116 187.7795 304.9047  1.00271349 40686
INTELSAT 18 (IS-18)     
1 37834U 11056A   23007.14354934  .00000065  00000+0  00000+0 0  9992
2 37834   0.0200  25.9834 0002174 263.1073  49.0228  1.00271347 41203
INTELSAT 22 (IS-22)     
1 38098U 12011A   23007.23105161 -.00000046  00000+0  00000+0 0  9993
2 38098   0.0187  59.3808 0002394 218.2792 344.1436  1.00271717 39214
INTELSAT 19 (IS-19)     
1 38356U 12030A   23007.27746830 -.00000044  00000+0  00000+0 0  9997
2 38356   0.0182  39.7313 0003449 251.3009  81.4248  1.00271088 37839
INTELSAT 20 (IS-20)     
1 38740U 12043A   23007.23105161 -.00000012  00000+0  00000+0 0  9995
2 38740   0.0178  78.6835 0002844 118.8808  60.6347  1.00270879 38145
INTELSAT 21 (IS-21)     
1 38749U 12045A   23007.09613157 -.00000272  00000+0  00000+0 0  9997
2 38749   0.0164  31.1916 0002560 243.6047 168.2023  1.00272177 37935
INTELSAT 23 (IS-23)     
1 38867U 12057A   23007.38403755 -.00000272  00000+0  00000+0 0  9994
2 38867   0.0190  77.8763 0001295 239.2314 234.8411  1.00271063 37501
FM-6                    
1 39360U 13058A   23007.36299470 -.00000005  00000+0  00000+0 0  9994
2 39360   0.0029   6.3317 0000475 177.5450 297.3029  1.00271763 33745
INTELSAT 30 (IS-30)     
1 40271U 14062A   23006.94526497 -.00000138  00000+0  00000+0 0  9995
2 40271   0.0281  44.2456 0002121  67.3714 239.8763  1.00269500 29974
DIRECTV 14              
1 40333U 14078B   23006.87266934 -.00000113  00000+0  00000+0 0  9993
2 40333   0.0283  70.1162 0000426 160.2388  90.7582  1.00273564 29454
DIRECTV 15              
1 40663U 15026A   23007.01549154 -.00000090  00000+0  00000+0 0  9992
2 40663   0.0181  36.5491 0000272 170.3372 162.1420  1.00274309 27857
SKY MEXICO-1            
1 40664U 15026B   23007.37889481 -.00000222  00000+0  00000+0 0  9999
2 40664   0.0110   0.8244 0002386 291.7353 231.7497  1.00271869 27939
INTELSAT 34 (IS-34)     
1 40874U 15039A   23007.29285410 -.00000273  00000+0  00000+0 0  9995
2 40874   0.0148  27.0447 0000534 199.4549 290.0215  1.00272590 27010
INTELSAT 31 (IS-31)     
1 41581U 16035A   23006.87354098 -.00000138  00000+0  00000+0 0  9990
2 41581   0.0124  28.0596 0002515 177.2097 120.3311  1.00270706 24082
INTELSAT 36 (IS-36)     
1 41747U 16053A   23007.23105161 -.00000012  00000+0  00000+0 0  9991
2 41747   0.0105  20.4269 0001187 329.1294 268.6490  1.00270260 23346
INTELSAT 33E (IS-33E)   
1 41748U 16053B   23007.16577313  .00000061  00000+0  00000+0 0  9999
2 41748   0.0365 292.6403 0001828 335.3772 318.1032  1.00272873 23648
INTELSAT 32E (IS-32E)   
1 41945U 17007B   23007.38595519 -.00000256  00000+0  00000+0 0  9997
2 41945   0.0175  41.1210 0000506 180.5812 340.7462  1.00274992 21646
INTELSAT 35E (IS-35E)   
1 42818U 17041A   23007.38769848 -.00000226  00000+0  00000+0 0  9990
2 42818   0.0208  34.2678 0002087 261.0584 276.4356  1.00268580 20205
INTELSAT 37E (IS-37E)   
1 42950U 17059A   23007.27410413 -.00000128  00000+0  00000+0 0  9996
2 42950   0.0178  45.8652 0002994 238.6818 262.6977  1.00271588 19469
AZERSPACE 2 (IS-38)     
1 43632U 18074A   23007.17688175  .00000149  00000+0  00000+0 0  9995
2 43632   0.0291  50.4083 0001660 241.4911 283.3801  1.00269794 15848
HORIZONS-3E             
1 43633U 18074B   23007.39632844 -.00000019  00000+0  00000+0 0  9999
2 43633   0.0294 147.5590 0001377 146.9257 123.8748  1.00267134 15721
AT&T T-16               
1 44333U 19034A   23006.94413181 -.00000103  00000+0  00000+0 0  9999
2 44333   0.0159  68.9184 0000786 136.2231 140.1285  1.00272440 13026
INTELSAT 39 (IS-39)     
1 44476U 19049B   23007.12549271  .00000046  00000+0  00000+0 0  9999
2 44476   0.0246  36.3214 0001267 124.0496  53.1771  1.00270150 12531
GALAXY 30 (G-30)        
1 46114U 20056C   23007.44847581  .00000049  00000+0  00000+0 0  9993
2 46114   0.0246  43.8385 0002282 250.7239 208.6347  1.00270392  8803
GALAXY 33 (G-33)        
1 54026U 22128A   23007.43815573  .00000092  00000+0  00000+0 0  9999
2 54026   0.0180  32.9243 0002502 263.8523 194.6944  1.00266690  1142
GALAXY 34 (G-34)        
1 54027U 22128B   23007.06263312  .00000071  00000+0  00000+0 0  9994
2 54027   0.0185   3.0923 0001449  73.5815 283.3423  1.00274058  1304
GALAXY 31 (G-31)        
1 54243U 22153A   23007.25326859  .00000092  00000+0  00000+0 0  9992
2 54243   0.0661 251.6910 0002383  34.7585 133.6814  1.00466501   532
GALAXY 32 (G-32)        
1 54244U 22153B   23007.25882913  .00000144  00000+0  00000+0 0  9999
2 54244   0.0255  52.8854 0002756 237.1205 120.6882  1.00272680   547
GALAXY 35 (G-35)        
1 54741U 22170A   23007.37966299  .00000145  00000+0  00000+0 0  9994
2 54741   0.0171 132.0543 0002387 233.7795  87.4718  1.00274249   303
GALAXY 36 (G-36)        
1 54742U 22170B   23007.25882913  .00000145  00000+0  00000+0 0  9992
2 54742   0.0262  88.3458 0002227 178.1978 143.2159  1.00270798   160
